start=new Date('2023-02-27T00:00:00.000Z').valueOf();
sats=[{"OBJECT_ID":"2020-035AD","NORAD_CAT_ID":"45684","MEAN_ELEMENT_THEORY":"SGP4","TIME_SYSTEM":"UTC","TLE_LINE2":"2 45684  53.0541 347.9611 0001075  94.5778 265.5334 15.06398420151969","BSTAR":"0.00161020000000","MEAN_MOTION_DDOT":"0.0000000000000","FILE":"3841853","LAUNCH_DATE":"2020-06-04","DECAY_DATE":null,"TLE_LINE1":"1 45684U 20035AD  23057.28385131  .00023783  00000-0  16102-2 0  9990","OBJECT_TYPE":"PAYLOAD","CENTER_NAME":"EARTH","APOAPSIS":"547.963","CLASSIFICATION_TYPE":"U","INCLINATION":"53.0541","MEAN_ANOMALY":"265.5334","SITE":"AFETR","RA_OF_ASC_NODE":"347.9611","ELEMENT_SET_NO":"999","ARG_OF_PERICENTER":"94.5778","MEAN_MOTION":"15.06398420","GP_ID":"227003721","MEAN_MOTION_DOT":"0.00023783","OBJECT_NAME":"STARLINK-1401","COUNTRY_CODE":"US","ECCENTRICITY":"0.00010750","EPHEMERIS_TYPE":"0","PERIAPSIS":"546.474","PERIOD":"95.592","REV_AT_EPOCH":"15196","REF_FRAME":"TEME","RCS_SIZE":"LARGE","SEMIMAJOR_AXIS":"6925.353","EPOCH":"2023-02-26T06:48:44.753184"},{"DECAY_DATE":null,"LAUNCH_DATE":"2020-06-04","TLE_LINE1":"1 45685U 20035AE  23057.21381217  .00028543  00000-0  19275-2 0  9998","CENTER_NAME":"EARTH","OBJECT_TYPE":"PAYLOAD","APOAPSIS":"547.965","CLASSIFICATION_TYPE":"U","OBJECT_ID":"2020-035AE","MEAN_ELEMENT_THEORY":"SGP4","TIME_SYSTEM":"UTC","NORAD_CAT_ID":"45685","MEAN_MOTION_DDOT":"0.0000000000000","FILE":"3839518","BSTAR":"0.00192750000000","TLE_LINE2":"2 45685  53.0544 348.2673 0001075  95.0565 265.0546 15.06397601151549","PERIAPSIS":"546.476","EPHEMERIS_TYPE":"0","PERIOD":"95.592","REV_AT_EPOCH":"15154","RCS_SIZE":"LARGE","SEMIMAJOR_AXIS":"6925.356","EPOCH":"2023-02-26T05:07:53.371488","REF_FRAME":"TEME","SITE":"AFETR","ARG_OF_PERICENTER":"95.0565","RA_OF_ASC_NODE":"348.2673","ELEMENT_SET_NO":"999","INCLINATION":"53.0544","MEAN_ANOMALY":"265.0546","GP_ID":"226929621","MEAN_MOTION":"15.06397601","ECCENTRICITY":"0.00010750","COUNTRY_CODE":"US","OBJECT_NAME":"STARLINK-1402","MEAN_MOTION_DOT":"0.00028543"},{"TLE_LINE2":"2 45686  53.0544 345.6248 0001649 103.6815 256.4357 15.06407403152042","BSTAR":"0.00221990000000","MEAN_MOTION_DDOT":"0.0000000000000","FILE":"3843368","NORAD_CAT_ID":"45686","TIME_SYSTEM":"UTC","MEAN_ELEMENT_THEORY":"SGP4","OBJECT_ID":"2020-035AF","APOAPSIS":"548.333","CLASSIFICATION_TYPE":"U","OBJECT_TYPE":"PAYLOAD","CENTER_NAME":"EARTH","TLE_LINE1":"1 45686U 20035AF  23057.80356998  .00032946  00000-0  22199-2 0  9993","LAUNCH_DATE":"2020-06-04","DECAY_DATE":null,"MEAN_MOTION_DOT":"0.00032946","OBJECT_NAME":"STARLINK-1404","ECCENTRICITY":"0.00016490","COUNTRY_CODE":"US","MEAN_MOTION":"15.06407403","GP_ID":"227063377","MEAN_ANOMALY":"256.4357","INCLINATION":"53.0544","RA_OF_ASC_NODE":"345.6248","SITE":"AFETR","ELEMENT_SET_NO":"999","ARG_OF_PERICENTER":"103.6815","REF_FRAME":"TEME","SEMIMAJOR_AXIS":"6925.326","RCS_SIZE":"LARGE","EPOCH":"2023-02-26T19:17:08.446272","REV_AT_EPOCH":"15204","PERIOD":"95.592","EPHEMERIS_TYPE":"0","PERIAPSIS":"546.049"},{"FILE":"3841853","MEAN_MOTION_DDOT":"0.0000000000000","BSTAR":"0.00340430000000","TLE_LINE2":"2 45688  53.0584 343.4486 0003573 145.7538 214.3686 15.16574742152001","OBJECT_ID":"2020-035AH","MEAN_ELEMENT_THEORY":"SGP4","TIME_SYSTEM":"UTC","NORAD_CAT_ID":"45688","CENTER_NAME":"EARTH","OBJECT_TYPE":"PAYLOAD","APOAPSIS":"518.667","CLASSIFICATION_TYPE":"U","DECAY_DATE":null,"LAUNCH_DATE":"2020-06-04","TLE_LINE1":"1 45688U 20035AH  23057.07372253  .00067591  00000-0  34043-2 0  9991","GP_ID":"227002971","MEAN_MOTION":"15.16574742","COUNTRY_CODE":"US","ECCENTRICITY":"0.00035730","MEAN_MOTION_DOT":"0.00067591","OBJECT_NAME":"STARLINK-1408","SITE":"AFETR","RA_OF_ASC_NODE":"343.4486","ARG_OF_PERICENTER":"145.7538","ELEMENT_SET_NO":"999","INCLINATION":"53.0584","MEAN_ANOMALY":"214.3686","REV_AT_EPOCH":"15200","RCS_SIZE":"LARGE","SEMIMAJOR_AXIS":"6894.339","EPOCH":"2023-02-26T01:46:09.626592","REF_FRAME":"TEME","PERIAPSIS":"513.741","EPHEMERIS_TYPE":"0","PERIOD":"94.951"},{"ECCENTRICITY":"0.00012550","COUNTRY_CODE":"US","OBJECT_NAME":"STARLINK-1413","MEAN_MOTION_DOT":"0.00021948","GP_ID":"227062876","MEAN_MOTION":"15.06428170","RA_OF_ASC_NODE":"345.5412","SITE":"AFETR","ELEMENT_SET_NO":"999","ARG_OF_PERICENTER":"104.8559","MEAN_ANOMALY":"255.2569","INCLINATION":"53.0533","SEMIMAJOR_AXIS":"6925.262","RCS_SIZE":"LARGE","EPOCH":"2023-02-26T19:43:40.295424","REF_FRAME":"TEME","REV_AT_EPOCH":"15195","PERIOD":"95.590","PERIAPSIS":"546.258","EPHEMERIS_TYPE":"0","FILE":"3843368","MEAN_MOTION_DDOT":"0.0000000000000","BSTAR":"0.00148660000000","TLE_LINE2":"2 45689  53.0533 345.5412 0001255 104.8559 255.2569 15.06428170151951","MEAN_ELEMENT_THEORY":"SGP4","TIME_SYSTEM":"UTC","NORAD_CAT_ID":"45689","OBJECT_ID":"2020-035AJ","APOAPSIS":"547.996","CLASSIFICATION_TYPE":"U","CENTER_NAME":"EARTH","OBJECT_TYPE":"PAYLOAD","TLE_LINE1":"1 45689U 20035AJ  23057.82199416  .00021948  00000-0  14866-2 0  9990","DECAY_DATE":null,"LAUNCH_DATE":"2020-06-04"},{"OBJECT_ID":"2020-035AK","MEAN_ELEMENT_THEORY":"SGP4","TIME_SYSTEM":"UTC","NORAD_CAT_ID":"45690","FILE":"3841853","MEAN_MOTION_DDOT":"0.0000000000000","TLE_LINE2":"2 45690  53.0573 348.2095 0000999 101.9977 258.1124 15.06402236151897","BSTAR":"0.00225890000000","DECAY_DATE":null,"LAUNCH_DATE":"2020-06-04","TLE_LINE1":"1 45690U 20035AK  23057.23130392  .00033527  00000-0  22589-2 0  9992","CENTER_NAME":"EARTH","OBJECT_TYPE":"PAYLOAD","APOAPSIS":"547.899","CLASSIFICATION_TYPE":"U","ARG_OF_PERICENTER":"101.9977","SITE":"AFETR","ELEMENT_SET_NO":"999","RA_OF_ASC_NODE":"348.2095","MEAN_ANOMALY":"258.1124","INCLINATION":"53.0573","GP_ID":"227004473","MEAN_MOTION":"15.06402236","ECCENTRICITY":"0.00009990","COUNTRY_CODE":"US","OBJECT_NAME":"STARLINK-1414","MEAN_MOTION_DOT":"0.00033527","PERIAPSIS":"546.515","EPHEMERIS_TYPE":"0","PERIOD":"95.592","REV_AT_EPOCH":"15189","RCS_SIZE":"LARGE","SEMIMAJOR_AXIS":"6925.342","EPOCH":"2023-02-26T05:33:04.658688","REF_FRAME":"TEME"},{"CENTER_NAME":"EARTH","OBJECT_TYPE":"PAYLOAD","APOAPSIS":"547.998","CLASSIFICATION_TYPE":"U","DECAY_DATE":null,"LAUNCH_DATE":"2020-06-04","TLE_LINE1":"1 45691U 20035AL  23057.27648096  .00012500  00000-0  85668-3 0  9998","MEAN_MOTION_DDOT":"0.0000000000000","FILE":"3841853","BSTAR":"0.00085668000000","TLE_LINE2":"2 45691  53.0552 347.9922 0001115  93.6611 266.4506 15.06395892151966","OBJECT_ID":"2020-035AL","MEAN_ELEMENT_THEORY":"SGP4","TIME_SYSTEM":"UTC","NORAD_CAT_ID":"45691","REV_AT_EPOCH":"15196","SEMIMAJOR_AXIS":"6925.361","RCS_SIZE":"LARGE","EPOCH":"2023-02-26T06:38:07.954944","REF_FRAME":"TEME","PERIAPSIS":"546.454","EPHEMERIS_TYPE":"0","PERIOD":"95.592","GP_ID":"227004724","MEAN_MOTION":"15.06395892","ECCENTRICITY":"0.00011150","COUNTRY_CODE":"US","OBJECT_NAME":"STARLINK-1415","MEAN_MOTION_DOT":"0.00012500","RA_OF_ASC_NODE":"347.9922","SITE":"AFETR","ARG_OF_PERICENTER":"93.6611","ELEMENT_SET_NO":"999","INCLINATION":"53.0552","MEAN_ANOMALY":"266.4506"},{"TLE_LINE1":"1 45692U 20035AM  23057.79989027  .00030432  00000-0  20514-2 0  9990","DECAY_DATE":null,"LAUNCH_DATE":"2020-06-04","APOAPSIS":"548.076","CLASSIFICATION_TYPE":"U","CENTER_NAME":"EARTH","OBJECT_TYPE":"PAYLOAD","TIME_SYSTEM":"UTC","MEAN_ELEMENT_THEORY":"SGP4","NORAD_CAT_ID":"45692","OBJECT_ID":"2020-035AM","FILE":"3843368","MEAN_MOTION_DDOT":"0.0000000000000","TLE_LINE2":"2 45692  53.0557 345.6392 0001382  87.3860 272.7287 15.06430962152033","BSTAR":"0.00205140000000","PERIOD":"95.590","PERIAPSIS":"546.162","EPHEMERIS_TYPE":"0","RCS_SIZE":"LARGE","SEMIMAJOR_AXIS":"6925.254","EPOCH":"2023-02-26T19:11:50.519328","REF_FRAME":"TEME","REV_AT_EPOCH":"15203","SITE":"AFETR","ELEMENT_SET_NO":"999","RA_OF_ASC_NODE":"345.6392","ARG_OF_PERICENTER":"87.3860","MEAN_ANOMALY":"272.7287","INCLINATION":"53.0557","COUNTRY_CODE":"US","ECCENTRICITY":"0.00013820","OBJECT_NAME":"STARLINK-1416","MEAN_MOTION_DOT":"0.00030432","GP_ID":"227064096","MEAN_MOTION":"15.06430962"},{"PERIOD":"95.593","EPHEMERIS_TYPE":"0","PERIAPSIS":"546.640","REF_FRAME":"TEME","RCS_SIZE":"LARGE","SEMIMAJOR_AXIS":"6925.373","EPOCH":"2023-02-26T05:18:30.980160","REV_AT_EPOCH":"15154","INCLINATION":"53.0539","MEAN_ANOMALY":"284.4094","SITE":"AFETR","ELEMENT_SET_NO":"999","ARG_OF_PERICENTER":"75.6991","RA_OF_ASC_NODE":"348.2451","MEAN_MOTION_DOT":"0.00019861","OBJECT_NAME":"STARLINK-1417","ECCENTRICITY":"0.00008640","COUNTRY_CODE":"US","MEAN_MOTION":"15.06391918","GP_ID":"226929674","TLE_LINE1":"1 45693U 20035AN  23057.22119190  .00019861  00000-0  13488-2 0  9990","LAUNCH_DATE":"2020-06-04","DECAY_DATE":null,"APOAPSIS":"547.837","CLASSIFICATION_TYPE":"U","OBJECT_TYPE":"PAYLOAD","CENTER_NAME":"EARTH","NORAD_CAT_ID":"45693","TIME_SYSTEM":"UTC","MEAN_ELEMENT_THEORY":"SGP4","OBJECT_ID":"2020-035AN","BSTAR":"0.00134880000000","TLE_LINE2":"2 45693  53.0539 348.2451 0000864  75.6991 284.4094 15.06391918151546","FILE":"3839526","MEAN_MOTION_DDOT":"0.0000000000000"},{"CENTER_NAME":"EARTH","OBJECT_TYPE":"PAYLOAD","APOAPSIS":"515.253","CLASSIFICATION_TYPE":"U","DECAY_DATE":null,"LAUNCH_DATE":"2020-06-04","TLE_LINE1":"1 45694U 20035AP  23057.76673593  .00055657  00000-0  27033-2 0  9996","FILE":"3843368","MEAN_MOTION_DDOT":"0.0000000000000","TLE_LINE2":"2 45694  53.0491 339.5546 0004592 142.2574 217.8743 15.17933557152110","BSTAR":"0.00270330000000","OBJECT_ID":"2020-035AP","MEAN_ELEMENT_THEORY":"SGP4","TIME_SYSTEM":"UTC","NORAD_CAT_ID":"45694","REV_AT_EPOCH":"15211","SEMIMAJOR_AXIS":"6890.224","RCS_SIZE":"LARGE","EPOCH":"2023-02-26T18:24:05.984352","REF_FRAME":"TEME","PERIAPSIS":"508.925","EPHEMERIS_TYPE":"0","PERIOD":"94.866","GP_ID":"227062626","MEAN_MOTION":"15.17933557","COUNTRY_CODE":"US","ECCENTRICITY":"0.00045920","OBJECT_NAME":"STARLINK-1419","MEAN_MOTION_DOT":"0.00055657","SITE":"AFETR","RA_OF_ASC_NODE":"339.5546","ARG_OF_PERICENTER":"142.2574","ELEMENT_SET_NO":"999","MEAN_ANOMALY":"217.8743","INCLINATION":"53.0491"}];
